XRISM                   
1 57800U 23137A   24174.54726694  .00005098  00000+0  38054-3 0  9991
2 57800  31.0043 338.4943 0009558 262.9237  97.0312 15.01280951 43499
